ONEWEB-0200             
1 48244U 21031AL  21217.91668981  .00000014  00000-0  00000+0 0  9994
2 48244  87.8742 282.8356 0008961 282.9027  12.0871 13.49915308 14847
ONEWEB-0217             
1 48245U 21031AM  21217.91668981  .00000014  00000-0  00000+0 0  9995
2 48245  87.8644 282.8364 0005954 309.1083  58.0089 13.42011422 14793
ONEWEB-0211             
1 48767U 21045A   21217.91668981 -.01357639  00000-0 -50421+0 0  9992
2 48767  87.6345 253.9203 0008963  40.9244  60.9761 14.36031582 11701
ONEWEB-0223             
1 48768U 21045B   21217.91668981 -.01405177  00000-0 -59212+0 0  9991
2 48768  87.6281 253.8893 0011736  20.4672  74.8481 14.29094591 11710
ONEWEB-0230             
1 48769U 21045C   21217.91668981 -.01053285  00000-0 -22077+0 0  9990
2 48769  87.7878 253.8091 0008140  32.1230 125.1697 14.62976057  3554
ONEWEB-0237             
1 48770U 21045D   21217.91668981 -.01414418  00000-0 -67153+0 0  9995
2 48770  87.5752 253.8971 0012520  35.2681 358.1759 14.22884758 11663
ONEWEB-0235             
1 48771U 21045E   21217.91668981 -.01377742  00000-0 -65066+0 0  9995
2 48771  87.6397 254.0186 0007443  48.1405 198.5024 14.23686931 11649
ONEWEB-0242             
1 48772U 21045F   21217.91668981 -.01410270  00000-0 -52807+0 0  9999
2 48772  87.6697 253.8844 0012347  40.2826 110.8722 14.35145975  3532
ONEWEB-0241             
1 48773U 21045G   21217.91668981 -.01409292  00000-0 -61479+0 0  9997
2 48773  87.6168 253.8680 0008518  32.8515 135.5388 14.27326693 11676
ONEWEB-0243             
1 48774U 21045H   21217.91668981 -.01426296  00000-0 -71579+0 0  9993
2 48774  87.5849 253.9435 0012431  37.6649  86.5536 14.19976575 11650
ONEWEB-0222             
1 48775U 21045J   21217.91668981 -.01355100  00000-0 -58591+0 0  9998
2 48775  87.6128 253.8810 0011732  33.3359 250.4237 14.28215110 11686
ONEWEB-0244             
1 48776U 21045K   21217.91668981 -.01238515  00000-0 -31359+0 0  9992
2 48776  87.6761 253.8722 0007636  42.1013  36.6039 14.54337664 11733
ONEWEB-0247             
1 48777U 21045L   21217.91668981 -.01427539  00000-0 -68315+0 0  9991
2 48777  87.5765 253.8595 0007929  33.4454   6.5948 14.22523642 11667
ONEWEB-0245             
1 48778U 21045M   21217.91668981 -.01405250  00000-0 -62474+0 0  9998
2 48778  87.6004 253.8966 0012339  32.3172 352.6499 14.26309631 11674
ONEWEB-0229             
1 48779U 21045N   21217.91668981 -.01417307  00000-0 -68504+0 0  9995
2 48779  87.5703 253.8961 0008491  47.4452 321.5369 14.21970661  3514
ONEWEB-0228             
1 48780U 21045P   21217.91668981 -.01412040  00000-0 -70823+0 0  9993
2 48780  87.5657 253.9123 0010584  23.3472 234.2238 14.19984291 11656
ONEWEB-0232             
1 48781U 21045Q   21217.91668981 -.01035341  00000-0 -17653+0 0  9991
2 48781  87.8168 253.7014 0011186  39.0893  56.0165 14.72009591  3575
ONEWEB-0231             
1 48782U 21045R   21217.91668981 -.01429222  00000-0 -67189+0 0  9996
2 48782  87.5836 253.8709 0010368  45.5209 244.3763 14.23453751 11674
ONEWEB-0234             
1 48783U 21045S   21217.91668981 -.01200001  00000-0 -40013+0 0  9996
2 48783  87.6410 253.8507 0009421  22.2808  62.7111 14.40987144 11693
ONEWEB-0238             
1 48784U 21045T   21217.91668981 -.01410713  00000-0 -63363+0 0  9993
2 48784  87.5978 253.8934 0010989  38.9493 193.4584 14.25796446 11682
ONEWEB-0240             
1 48785U 21045U   21217.91668981 -.01426983  00000-0 -56451+0 0  9990
2 48785  87.6426 253.9424 0008764  37.3097  68.6670 14.32410599 11698
ONEWEB-0246             
1 48786U 21045V   21217.91668981 -.01392699  00000-0 -76697+0 0  9991
2 48786  87.5295 253.8958 0009183  55.7901   9.7659 14.15524068 11621
ONEWEB-0210             
1 48787U 21045W   21217.91668981 -.01387314  00000-0 -70350+0 0  9990
2 48787  87.5615 253.8990 0010853  21.7397 184.5253 14.19926927 11651
ONEWEB-0214             
1 48788U 21045X   21217.91668981  .00041790  00000-0  20548-1 0  9999
2 48788  87.5484 253.9215 0007428  44.3930 153.9484 14.17353584 11618
ONEWEB-0221             
1 48789U 21045Y   21217.91668981 -.01423368  00000-0 -58591+0 0  9995
2 48789  87.6252 253.8915 0010995  15.7999 200.4750 14.30350183 11711
ONEWEB-0213             
1 48790U 21045Z   21217.91668981 -.01409996  00000-0 -62059+0 0  9992
2 48790  87.6128 253.8990 0011903  25.9249 177.5591 14.26846802  3529
ONEWEB-0212             
1 48791U 21045AA  21217.91668981 -.01309312  00000-0 -48313+0 0  9991
2 48791  87.6153 253.8900 0012632  22.5819  27.9688 14.36198509  3525
ONEWEB-0227             
1 48792U 21045AB  21217.91668981 -.01406047  00000-0 -68160+0 0  9997
2 48792  87.5556 253.9632 0008875  28.5152 156.9157 14.21786345  3502
ONEWEB-0226             
1 48793U 21045AC  21217.91668981 -.01419910  00000-0 -70680+0 0  9991
2 48793  87.5834 253.8729 0011995  46.4221 116.9215 14.20397496  3517
ONEWEB-0224             
1 48794U 21045AD  21217.91668981 -.01334798  00000-0 -74012+0 0  9995
2 48794  87.5324 253.8694 0009182  33.7728  42.5465 14.14991282 11605
ONEWEB-0233             
1 48795U 21045AE  21217.91668981 -.01359140  00000-0 -70041+0 0  9992
2 48795  87.5364 253.8489 0007920  49.0677  37.7567 14.19001899  3491
ONEWEB-0190             
1 48796U 21045AF  21217.91668981 -.01367770  00000-0 -63746+0 0  9995
2 48796  87.5807 253.8666 0011847  46.2021 351.7832 14.24331886  3522
ONEWEB-0236             
1 48797U 21045AG  21217.91668981 -.01401277  00000-0 -79440+0 0  9995
2 48797  87.5423 253.8560 0008644  51.8550 153.6007 14.13980563  3499
ONEWEB-0248             
1 48798U 21045AH  21217.91668981 -.01423407  00000-0 -54647+0 0  9997
2 48798  87.6519 253.8911 0010748  38.3878 355.0210 14.33919802  3537
ONEWEB-0225             
1 48799U 21045AJ  21217.91668981 -.01413873  00000-0 -50822+0 0  9995
2 48799  87.6601 253.8710 0008954  48.9506 150.5589 14.37238906  3527
ONEWEB-0215             
1 48800U 21045AK  21217.91668981 -.01295364  00000-0 -63744+0 0  9998
2 48800  87.5644 253.8543 0009753  48.3996 203.6511 14.21269541 11622
ONEWEB-0216             
1 48801U 21045AL  21217.91668981 -.01429899  00000-0 -78058+0 0  9995
2 48801  87.5307 253.9451 0009255  49.9217  37.8662 14.15496884  3505
ONEWEB-0239             
1 48802U 21045AM  21217.91668981 -.01391406  00000-0 -68582+0 0  9999
2 48802  87.5871 254.0578 0012963  41.5053 227.4481 14.21434931  3519
ONEWEB-0249             
1 48967U 21060A   21217.91668981 -.01382265  00000-0 -20602+0 0  9992
2 48967  87.4976 225.3003 0008343 133.9905  48.9133 14.78183046  3597
ONEWEB-0250             
1 48968U 21060B   21217.91668981 -.01388074  00000-0 -21806+0 0  9994
2 48968  87.4823 225.2947 0009365 122.4704 240.1207 14.75955045  3603
ONEWEB-0251             
1 48969U 21060C   21217.91668981  .00068851  00000-0  21628-2 0  9995
2 48969  87.4173 224.8851 0012061 141.7104 154.4781 15.32662542  3612
ONEWEB-0252             
1 48970U 21060D   21217.91668981 -.01348617  00000-0 -19213+0 0  9995
2 48970  87.5016 225.2633 0012267 138.1394 188.7944 14.79959036  3600
ONEWEB-0253             
1 48971U 21060E   21217.91668981 -.01350604  00000-0 -20464+0 0  9995
2 48971  87.4705 225.2848 0009529 121.9674 353.6156 14.77401256  3580
ONEWEB-0254             
1 48972U 21060F   21217.91668981 -.01355958  00000-0 -22143+0 0  9999
2 48972  87.4714 225.3039 0012512 139.7691 358.7055 14.74185000  3640
ONEWEB-0255             
1 48973U 21060G   21217.91668981 -.01312308  00000-0 -17525+0 0  9990
2 48973  87.5058 225.2710 0007485 135.5090 114.5435 14.83147699  3606
ONEWEB-0256             
1 48974U 21060H   21217.91668981 -.01305844  00000-0 -17771+0 0  9991
2 48974  87.4997 225.2873 0013083 135.8076 255.6350 14.82281948  3637
ONEWEB-0257             
1 48975U 21060J   21217.91668981 -.01390342  00000-0 -21651+0 0  9991
2 48975  87.4876 225.3189 0011447 122.3148 216.8626 14.76309663  3596
ONEWEB-0258             
1 48976U 21060K   21217.91668981 -.01383935  00000-0 -22343+0 0  9991
2 48976  87.4663 225.3088 0009542 127.1953 315.3552 14.74776539  3590
ONEWEB-0259             
1 48977U 21060L   21217.91668981 -.01354690  00000-0 -19087+0 0  9999
2 48977  87.5049 225.2617 0013176 137.9153 239.3911 14.80424118  3602
ONEWEB-0260             
1 48978U 21060M   21217.91668981 -.01311427  00000-0 -19432+0 0  9995
2 48978  87.4805 225.2811 0008977 123.3830 357.9559 14.78259225  3597
ONEWEB-0261             
1 48979U 21060N   21217.91668981 -.01341184  00000-0 -18558+0 0  9997
2 48979  87.5054 225.2469 0012033 136.8741 248.7451 14.81163100  3602
ONEWEB-0262             
1 48980U 21060P   21217.91668981 -.01371759  00000-0 -19739+0 0  9992
2 48980  87.5062 225.2971 0010431 135.2523 131.4961 14.79615659  3592
ONEWEB-0263             
1 48981U 21060Q   21217.91668981 -.01395991  00000-0 -22218+0 0  9993
2 48981  87.4795 225.3072 0010577 122.0316 204.0421 14.75404328  3608
ONEWEB-0264             
1 48982U 21060R   21217.91668981 -.01389689  00000-0 -23537+0 0  9996
2 48982  87.4545 225.3073 0010547 143.9067 250.5162 14.72718522  3626
ONEWEB-0265             
1 48983U 21060S   21217.91668981  .00071548  00000-0  17334-2 0  9997
2 48983  87.3961 224.8197 0008886 130.4493 179.7172 15.40775975  3620
ONEWEB-0266             
1 48984U 21060T   21217.91668981 -.01347201  00000-0 -21319+0 0  9998
2 48984  87.4819 225.2927 0012707 139.5951  97.9728 14.75507800  3609
ONEWEB-0267             
1 48985U 21060U   21217.91668981 -.01364592  00000-0 -23054+0 0  9999
2 48985  87.4576 225.3106 0008039 136.3472 164.9503 14.72792975  3596
ONEWEB-0268             
1 48986U 21060V   21217.91668981 -.01310483  00000-0 -18422+0 0  9993
2 48986  87.5054 225.2704 0008592 140.7252  38.1278 14.81003382  3601
ONEWEB-0269             
1 48987U 21060W   21217.91668981 -.01366091  00000-0 -18290+0 0  9993
2 48987  87.5076 225.2704 0008002 125.2413 169.7602 14.82633624  3598
ONEWEB-0270             
1 48988U 21060X   21217.91668981 -.01334528  00000-0 -18337+0 0  9996
2 48988  87.5140 225.2483 0013610 113.1190  62.5030 14.81952013  3606
